[{"CCSDS_OMM_VERS":"2.0","COMMENT":"GENERATED VIA SPACE-TRACK.ORG API","CREATION_DATE":"2021-11-04T17:50:53","ORIGINATOR":"18 SPCS","OBJECT_NAME":"TBA - TO BE ASSIGNED","OBJECT_ID":"","CENTER_NAME":"EARTH","REF_FRAME":"TEME","TIME_SYSTEM":"UTC","MEAN_ELEMENT_THEORY":"SGP4","EPOCH":"2021-11-03T17:29:01.516128","MEAN_MOTION":"14.51740851","ECCENTRICITY":"0.02923080","INCLINATION":"81.6285","RA_OF_ASC_NODE":"305.4132","ARG_OF_PERICENTER":"208.1269","MEAN_ANOMALY":"150.3874","EPHEMERIS_TYPE":"0","CLASSIFICATION_TYPE":"U","NORAD_CAT_ID":"81902","ELEMENT_SET_NO":"999","REV_AT_EPOCH":"41929","BSTAR":"0.00134640000000","MEAN_MOTION_DOT":"0.00009516","MEAN_MOTION_DDOT":"0.0000000000000","SEMIMAJOR_AXIS":"7098.105","PERIOD":"99.191","APOAPSIS":"927.454","PERIAPSIS":"512.487","OBJECT_TYPE":"TBA","RCS_SIZE":null,"COUNTRY_CODE":null,"LAUNCH_DATE":null,"SITE":null,"DECAY_DATE":null,"FILE":"3200777","GP_ID":"188874234","TLE_LINE0":"0 TBA - TO BE ASSIGNED","TLE_LINE1":"1 81902U          21307.72848977 +.00009516 +00000+0 +13464-2 0  9995","TLE_LINE2":"2 81902  81.6285 305.4132 0292308 208.1269 150.3874 14.51740851419291"},{"CCSDS_OMM_VERS":"2.0","COMMENT":"GENERATED VIA SPACE-TRACK.ORG API","CREATION_DATE":"2021-11-04T17:50:53","ORIGINATOR":"18 SPCS","OBJECT_NAME":"TBA - TO BE ASSIGNED","OBJECT_ID":"","CENTER_NAME":"EARTH","REF_FRAME":"TEME","TIME_SYSTEM":"UTC","MEAN_ELEMENT_THEORY":"SGP4","EPOCH":"2021-11-04T09:28:59.255328","MEAN_MOTION":"12.39719455","ECCENTRICITY":"0.15291740","INCLINATION":"61.7283","RA_OF_ASC_NODE":"338.0001","ARG_OF_PERICENTER":"80.1865","MEAN_ANOMALY":"296.7773","EPHEMERIS_TYPE":"0","CLASSIFICATION_TYPE":"U","NORAD_CAT_ID":"81905","ELEMENT_SET_NO":"999","REV_AT_EPOCH":"48649","BSTAR":"0.00883310000000","MEAN_MOTION_DOT":"0.00244268","MEAN_MOTION_DDOT":"0.0000000000000","SEMIMAJOR_AXIS":"7885.930","PERIOD":"116.155","APOAPSIS":"2713.690","PERIAPSIS":"301.899","OBJECT_TYPE":"TBA","RCS_SIZE":null,"COUNTRY_CODE":null,"LAUNCH_DATE":null,"SITE":null,"DECAY_DATE":null,"FILE":"3200777","GP_ID":"188873994","TLE_LINE0":"0 TBA - TO BE ASSIGNED","TLE_LINE1":"1 81905U          21308.39513027 +.00244268 +00000+0 +88331-2 0  9997","TLE_LINE2":"2 81905  61.7283 338.0001 1529174  80.1865 296.7773 12.39719455486492"},{"CCSDS_OMM_VERS":"2.0","COMMENT":"GENERATED VIA SPACE-TRACK.ORG API","CREATION_DATE":"2021-10-27T17:44:55","ORIGINATOR":"18 SPCS","OBJECT_NAME":"TBA - TO BE ASSIGNED","OBJECT_ID":"","CENTER_NAME":"EARTH","REF_FRAME":"TEME","TIME_SYSTEM":"UTC","MEAN_ELEMENT_THEORY":"SGP4","EPOCH":"2021-10-27T04:22:00.976800","MEAN_MOTION":"13.07226454","ECCENTRICITY":"0.08808600","INCLINATION":"65.7097","RA_OF_ASC_NODE":"210.4955","ARG_OF_PERICENTER":"32.6909","MEAN_ANOMALY":"332.5609","EPHEMERIS_TYPE":"0","CLASSIFICATION_TYPE":"U","NORAD_CAT_ID":"81921","ELEMENT_SET_NO":"999","REV_AT_EPOCH":"83100","BSTAR":"0.00026965000000","MEAN_MOTION_DOT":"0.00000566","MEAN_MOTION_DDOT":"0.0000000000000","SEMIMAJOR_AXIS":"7612.044","PERIOD":"110.157","APOAPSIS":"1904.423","PERIAPSIS":"563.394","OBJECT_TYPE":"TBA","RCS_SIZE":null,"COUNTRY_CODE":null,"LAUNCH_DATE":null,"SITE":null,"DECAY_DATE":null,"FILE":"3187100","GP_ID":"188251031","TLE_LINE0":"0 TBA - TO BE ASSIGNED","TLE_LINE1":"1 81921U          21300.18195575 +.00000566 +00000+0 +26965-3 0  9995","TLE_LINE2":"2 81921  65.7097 210.4955 0880860  32.6909 332.5609 13.07226454831006"},{"CCSDS_OMM_VERS":"2.0","COMMENT":"GENERATED VIA SPACE-TRACK.ORG API","CREATION_DATE":"2021-11-04T17:50:53","ORIGINATOR":"18 SPCS","OBJECT_NAME":"TBA - TO BE ASSIGNED","OBJECT_ID":"1987-079","CENTER_NAME":"EARTH","REF_FRAME":"TEME","TIME_SYSTEM":"UTC","MEAN_ELEMENT_THEORY":"SGP4","EPOCH":"2021-11-04T08:56:15.220896","MEAN_MOTION":"12.41909442","ECCENTRICITY":"0.06720380","INCLINATION":"66.4198","RA_OF_ASC_NODE":"154.3964","ARG_OF_PERICENTER":"355.5327","MEAN_ANOMALY":"179.7224","EPHEMERIS_TYPE":"0","CLASSIFICATION_TYPE":"U","NORAD_CAT_ID":"81946","ELEMENT_SET_NO":"999","REV_AT_EPOCH":"36164","BSTAR":"0.00045583000000","MEAN_MOTION_DOT":"0.00000084","MEAN_MOTION_DDOT":"0.0000000000000","SEMIMAJOR_AXIS":"7876.656","PERIOD":"115.950","APOAPSIS":"2027.862","PERIAPSIS":"969.180","OBJECT_TYPE":"TBA","RCS_SIZE":null,"COUNTRY_CODE":null,"LAUNCH_DATE":null,"SITE":null,"DECAY_DATE":null,"FILE":"3200777","GP_ID":"188874088","TLE_LINE0":"0 TBA - TO BE ASSIGNED","TLE_LINE1":"1 81946U 87079    21308.37239839 +.00000084 +00000+0 +45583-3 0  9996","TLE_LINE2":"2 81946  66.4198 154.3964 0672038 355.5327 179.7224 12.41909442361640"},{"CCSDS_OMM_VERS":"2.0","COMMENT":"GENERATED VIA SPACE-TRACK.ORG API","CREATION_DATE":"2021-11-03T18:02:46","ORIGINATOR":"18 SPCS","OBJECT_NAME":"TBA - TO BE ASSIGNED","OBJECT_ID":"","CENTER_NAME":"EARTH","REF_FRAME":"TEME","TIME_SYSTEM":"UTC","MEAN_ELEMENT_THEORY":"SGP4","EPOCH":"2021-11-03T09:02:54.537504","MEAN_MOTION":"14.31549171","ECCENTRICITY":"0.04671650","INCLINATION":"66.0815","RA_OF_ASC_NODE":"313.1768","ARG_OF_PERICENTER":"327.1258","MEAN_ANOMALY":"30.1547","EPHEMERIS_TYPE":"0","CLASSIFICATION_TYPE":"U","NORAD_CAT_ID":"81947","ELEMENT_SET_NO":"999","REV_AT_EPOCH":"41497","BSTAR":"0.00044512000000","MEAN_MOTION_DOT":"0.00003928","MEAN_MOTION_DDOT":"0.0000000000000","SEMIMAJOR_AXIS":"7164.694","PERIOD":"100.590","APOAPSIS":"1121.269","PERIAPSIS":"451.850","OBJECT_TYPE":"TBA","RCS_SIZE":null,"COUNTRY_CODE":null,"LAUNCH_DATE":null,"SITE":null,"DECAY_DATE":null,"FILE":"3199757","GP_ID":"188806361","TLE_LINE0":"0 TBA - TO BE ASSIGNED","TLE_LINE1":"1 81947U          21307.37702011 +.00003928 +00000+0 +44512-3 0  9993","TLE_LINE2":"2 81947  66.0815 313.1768 0467165 327.1258  30.1547 14.31549171414974"},{"CCSDS_OMM_VERS":"2.0","COMMENT":"GENERATED VIA SPACE-TRACK.ORG API","CREATION_DATE":"2021-11-04T17:50:53","ORIGINATOR":"18 SPCS","OBJECT_NAME":"TBA - TO BE ASSIGNED","OBJECT_ID":"","CENTER_NAME":"EARTH","REF_FRAME":"TEME","TIME_SYSTEM":"UTC","MEAN_ELEMENT_THEORY":"SGP4","EPOCH":"2021-11-03T15:21:57.160224","MEAN_MOTION":"13.94457487","ECCENTRICITY":"0.00372100","INCLINATION":"66.5873","RA_OF_ASC_NODE":"19.3955","ARG_OF_PERICENTER":"346.0332","MEAN_ANOMALY":"13.9714","EPHEMERIS_TYPE":"0","CLASSIFICATION_TYPE":"U","NORAD_CAT_ID":"81964","ELEMENT_SET_NO":"999","REV_AT_EPOCH":"40480","BSTAR":"0.00015608000000","MEAN_MOTION_DOT":"0.00000130","MEAN_MOTION_DDOT":"0.0000000000000","SEMIMAJOR_AXIS":"7291.188","PERIOD":"103.266","APOAPSIS":"940.184","PERIAPSIS":"885.923","OBJECT_TYPE":"TBA","RCS_SIZE":null,"COUNTRY_CODE":null,"LAUNCH_DATE":null,"SITE":null,"DECAY_DATE":null,"FILE":"3200777","GP_ID":"188874035","TLE_LINE0":"0 TBA - TO BE ASSIGNED","TLE_LINE1":"1 81964U          21307.64024491 +.00000130 +00000+0 +15608-3 0  9997","TLE_LINE2":"2 81964  66.5873  19.3955 0037210 346.0332  13.9714 13.94457487404804"},{"CCSDS_OMM_VERS":"2.0","COMMENT":"GENERATED VIA SPACE-TRACK.ORG API","CREATION_DATE":"2021-11-03T18:02:46","ORIGINATOR":"18 SPCS","OBJECT_NAME":"TBA - TO BE ASSIGNED","OBJECT_ID":"","CENTER_NAME":"EARTH","REF_FRAME":"TEME","TIME_SYSTEM":"UTC","MEAN_ELEMENT_THEORY":"SGP4","EPOCH":"2021-11-03T02:32:33.883008","MEAN_MOTION":"14.85730107","ECCENTRICITY":"0.00125040","INCLINATION":"86.6689","RA_OF_ASC_NODE":"71.5929","ARG_OF_PERICENTER":"137.8717","MEAN_ANOMALY":"222.3471","EPHEMERIS_TYPE":"0","CLASSIFICATION_TYPE":"U","NORAD_CAT_ID":"81969","ELEMENT_SET_NO":"999","REV_AT_EPOCH":"21606","BSTAR":"0.00024666000000","MEAN_MOTION_DOT":"0.00002170","MEAN_MOTION_DDOT":"0.0000000000000","SEMIMAJOR_AXIS":"6989.432","PERIOD":"96.922","APOAPSIS":"620.037","PERIAPSIS":"602.558","OBJECT_TYPE":"TBA","RCS_SIZE":null,"COUNTRY_CODE":null,"LAUNCH_DATE":null,"SITE":null,"DECAY_DATE":null,"FILE":"3199757","GP_ID":"188806375","TLE_LINE0":"0 TBA - TO BE ASSIGNED","TLE_LINE1":"1 81969U          21307.10594772 +.00002170 +00000+0 +24666-3 0  9997","TLE_LINE2":"2 81969  86.6689  71.5929 0012504 137.8717 222.3471 14.85730107216069"},{"CCSDS_OMM_VERS":"2.0","COMMENT":"GENERATED VIA SPACE-TRACK.ORG API","CREATION_DATE":"2021-11-02T18:24:01","ORIGINATOR":"18 SPCS","OBJECT_NAME":"TBA - TO BE ASSIGNED","OBJECT_ID":"","CENTER_NAME":"EARTH","REF_FRAME":"TEME","TIME_SYSTEM":"UTC","MEAN_ELEMENT_THEORY":"SGP4","EPOCH":"2021-11-02T14:08:18.578688","MEAN_MOTION":"13.82140822","ECCENTRICITY":"0.06042560","INCLINATION":"65.7568","RA_OF_ASC_NODE":"9.1942","ARG_OF_PERICENTER":"315.0589","MEAN_ANOMALY":"40.3034","EPHEMERIS_TYPE":"0","CLASSIFICATION_TYPE":"U","NORAD_CAT_ID":"81995","ELEMENT_SET_NO":"999","REV_AT_EPOCH":"39547","BSTAR":"0.00050207000000","MEAN_MOTION_DOT":"0.00002162","MEAN_MOTION_DDOT":"0.0000000000000","SEMIMAJOR_AXIS":"7334.440","PERIOD":"104.186","APOAPSIS":"1399.493","PERIAPSIS":"513.117","OBJECT_TYPE":"TBA","RCS_SIZE":null,"COUNTRY_CODE":null,"LAUNCH_DATE":null,"SITE":null,"DECAY_DATE":null,"FILE":"3197730","GP_ID":"188716409","TLE_LINE0":"0 TBA - TO BE ASSIGNED","TLE_LINE1":"1 81995U          21306.58910392 +.00002162 +00000+0 +50207-3 0  9998","TLE_LINE2":"2 81995  65.7568   9.1942 0604256 315.0589  40.3034 13.82140822395473"}]